[{"OBJECT_NAME":"STARLINK-32781","OBJECT_ID":"2025-019V","EPOCH":"2026-03-09T10:44:01.506624","MEAN_MOTION":15.27590634,"ECCENTRICITY":0.00019403,"INCLINATION":43.0046,"RA_OF_ASC_NODE":90.3672,"ARG_OF_PERICENTER":245.1224,"MEAN_ANOMALY":114.9426,"EPHEMERIS_TYPE":0,"CLASSIFICATION_TYPE":"U","NORAD_CAT_ID":62848,"ELEMENT_SET_NO":999,"REV_AT_EPOCH":6221,"BSTAR":0.0009831518,"MEAN_MOTION_DOT":0.000269,"MEAN_MOTION_DDOT":0},{"OBJECT_NAME":"CZ-2D DEB","OBJECT_ID":"2010-027G","EPOCH":"2026-03-07T07:54:25.300800","MEAN_MOTION":15.18267572,"ECCENTRICITY":0.0071051,"INCLINATION":97.484,"RA_OF_ASC_NODE":105.3106,"ARG_OF_PERICENTER":258.5099,"MEAN_ANOMALY":100.8151,"EPHEMERIS_TYPE":0,"CLASSIFICATION_TYPE":"U","NORAD_CAT_ID":38302,"ELEMENT_SET_NO":999,"REV_AT_EPOCH":83107,"BSTAR":0.0021438,"MEAN_MOTION_DOT":0.00047105,"MEAN_MOTION_DDOT":0}]
